{
  "type": "FeatureCollection",
  "features": [
    {
      "type": "Feature",
      "properties": {
        "norad_id": 31663,
        "name": "FENGYUN 1C DEB",
        "group": "fengyun-1c-debris",
        "lat": 37.10411858219554,
        "lon": 88.1080684039936,
        "alt_km": 602.7337381060361,
        "timestamp": "2025-12-18T21:31:51.285273+00:00",
        "meta_object_name": "FENGYUN 1C DEB",
        "meta_object_id": "1999-025CBV",
        "meta_epoch": "2025-12-16T13:34:15.010464",
        "meta_mean_motion": 14.76422844,
        "meta_eccentricity": 0.0189652,
        "meta_inclination": 98.8383,
        "meta_ra_of_asc_node": 258.7977,
        "meta_arg_of_pericenter": 225.3257,
        "meta_mean_anomaly": 133.2363,
        "meta_ephemeris_type": 0,
        "meta_classification_type": "U",
        "meta_norad_cat_id": 31663,
        "meta_element_set_no": 999,
        "meta_rev_at_epoch": 99336,
        "meta_bstar": 0.00022604034,
        "meta_mean_motion_dot": 2.035e-05,
        "meta_mean_motion_ddot": 0,
        "tle_line1": "1 31663U 99025CBV 25350.56545151  .00002035  00000+0  22604-3 0  9997",
        "tle_line2": "2 31663  98.8383 258.7977 0189652 225.3257 133.2363 14.76422844993365"
      },
      "geometry": {
        "type": "Point",
        "coordinates": [
          88.1080684039936,
          37.10411858219554
        ]
      }
    },
    {
      "type": "Feature",
      "properties": {
        "norad_id": 31664,
        "name": "FENGYUN 1C DEB",
        "group": "fengyun-1c-debris",
        "lat": -54.904101834041235,
        "lon": -3.088796818193877,
        "alt_km": 951.9960448242964,
        "timestamp": "2025-12-18T21:31:51.285283+00:00",
        "meta_object_name": "FENGYUN 1C DEB",
        "meta_object_id": "1999-025CBW",
        "meta_epoch": "2025-12-16T10:12:21.854016",
        "meta_mean_motion": 14.10300529,
        "meta_eccentricity": 0.01250271,
        "meta_inclination": 98.7525,
        "meta_ra_of_asc_node": 341.8409,
        "meta_arg_of_pericenter": 147.6886,
        "meta_mean_anomaly": 213.2022,
        "meta_ephemeris_type": 0,
        "meta_classification_type": "U",
        "meta_norad_cat_id": 31664,
        "meta_element_set_no": 999,
        "meta_rev_at_epoch": 96053,
        "meta_bstar": 0.0003241672,
        "meta_mean_motion_dot": 5.76e-06,
        "meta_mean_motion_ddot": 0,
        "tle_line1": "1 31664U 99025CBW 25350.42525294  .00000576  00000+0  32417-3 0  9990",
        "tle_line2": "2 31664  98.7525 341.8409 0125027 147.6886 213.2022 14.10300529960534"
      },
      "geometry": {
        "type": "Point",
        "coordinates": [
          -3.088796818193877,
          -54.904101834041235
        ]
      }
    },
    {
      "type": "Feature",
      "properties": {
        "norad_id": 31665,
        "name": "FENGYUN 1C DEB",
        "group": "fengyun-1c-debris",
        "lat": 55.44242542449888,
        "lon": -132.28928098738254,
        "alt_km": 844.7273016802701,
        "timestamp": "2025-12-18T21:31:51.285293+00:00",
        "meta_object_name": "FENGYUN 1C DEB",
        "meta_object_id": "1999-025CBX",
        "meta_epoch": "2025-12-16T08:14:19.517280",
        "meta_mean_motion": 13.84829693,
        "meta_eccentricity": 0.01897318,
        "meta_inclination": 98.4487,
        "meta_ra_of_asc_node": 32.9474,
        "meta_arg_of_pericenter": 177.2489,
        "meta_mean_anomaly": 182.9759,
        "meta_ephemeris_type": 0,
        "meta_classification_type": "U",
        "meta_norad_cat_id": 31665,
        "meta_element_set_no": 999,
        "meta_rev_at_epoch": 93241,
        "meta_bstar": 0.0010116548,
        "meta_mean_motion_dot": 1.275e-05,
        "meta_mean_motion_ddot": 0,
        "tle_line1": "1 31665U 99025CBX 25350.34328145  .00001275  00000+0  10117-2 0  9997",
        "tle_line2": "2 31665  98.4487  32.9474 0189731 177.2489 182.9759 13.84829693932412"
      },
      "geometry": {
        "type": "Point",
        "coordinates": [
          -132.28928098738254,
          55.44242542449888
        ]
      }
    },
    {
      "type": "Feature",
      "properties": {
        "norad_id": 31666,
        "name": "FENGYUN 1C DEB",
        "group": "fengyun-1c-debris",
        "lat": -49.710343084877344,
        "lon": -48.25662612926655,
        "alt_km": 625.491384566275,
        "timestamp": "2025-12-18T21:31:51.285304+00:00",
        "meta_object_name": "FENGYUN 1C DEB",
        "meta_object_id": "1999-025CBY",
        "meta_epoch": "2025-12-17T08:54:08.935200",
        "meta_mean_motion": 14.84181943,
        "meta_eccentricity": 0.00239851,
        "meta_inclination": 98.6556,
        "meta_ra_of_asc_node": 140.4403,
        "meta_arg_of_pericenter": 135.8475,
        "meta_mean_anomaly": 224.4657,
        "meta_ephemeris_type": 0,
        "meta_classification_type": "U",
        "meta_norad_cat_id": 31666,
        "meta_element_set_no": 999,
        "meta_rev_at_epoch": 97340,
        "meta_bstar": 0.0031502503,
        "meta_mean_motion_dot": 0.00026506,
        "meta_mean_motion_ddot": 0,
        "tle_line1": "1 31666U 99025CBY 25351.37093675  .00026506  00000+0  31503-2 0  9995",
        "tle_line2": "2 31666  98.6556 140.4403 0023985 135.8475 224.4657 14.84181943973405"
      },
      "geometry": {
        "type": "Point",
        "coordinates": [
          -48.25662612926655,
          -49.710343084877344
        ]
      }
    },
    {
      "type": "Feature",
      "properties": {
        "norad_id": 31667,
        "name": "FENGYUN 1C DEB",
        "group": "fengyun-1c-debris",
        "lat": 75.81325985156396,
        "lon": 165.82420061046858,
        "alt_km": 769.5259151587334,
        "timestamp": "2025-12-18T21:31:51.285314+00:00",
        "meta_object_name": "FENGYUN 1C DEB",
        "meta_object_id": "1999-025CBZ",
        "meta_epoch": "2025-12-08T19:56:03.363072",
        "meta_mean_motion": 14.2349492,
        "meta_eccentricity": 0.00517979,
        "meta_inclination": 99.0845,
        "meta_ra_of_asc_node": 194.7017,
        "meta_arg_of_pericenter": 98.3602,
        "meta_mean_anomaly": 262.3452,
        "meta_ephemeris_type": 0,
        "meta_classification_type": "U",
        "meta_norad_cat_id": 31667,
        "meta_element_set_no": 999,
        "meta_rev_at_epoch": 55937,
        "meta_bstar": 0.00044657651,
        "meta_mean_motion_dot": 9.83e-06,
        "meta_mean_motion_ddot": 0,
        "tle_line1": "1 31667U 99025CBZ 25342.83059448  .00000983  00000+0  44658-3 0  9994",
        "tle_line2": "2 31667  99.0845 194.7017 0051797  98.3602 262.3452 14.23494920559377"
      },
      "geometry": {
        "type": "Point",
        "coordinates": [
          165.82420061046858,
          75.81325985156396
        ]
      }
    },
    {
      "type": "Feature",
      "properties": {
        "norad_id": 31672,
        "name": "FENGYUN 1C DEB",
        "group": "fengyun-1c-debris",
        "lat": 43.16030335389689,
        "lon": 172.38753103022447,
        "alt_km": 705.373586614016,
        "timestamp": "2025-12-18T21:31:51.285324+00:00",
        "meta_object_name": "FENGYUN 1C DEB",
        "meta_object_id": "1999-025CCE",
        "meta_epoch": "2025-12-09T18:52:12.464832",
        "meta_mean_motion": 14.50862941,
        "meta_eccentricity": 0.0108049,
        "meta_inclination": 98.9574,
        "meta_ra_of_asc_node": 171.1973,
        "meta_arg_of_pericenter": 350.6234,
        "meta_mean_anomaly": 9.2939,
        "meta_ephemeris_type": 0,
        "meta_classification_type": "U",
        "meta_norad_cat_id": 31672,
        "meta_element_set_no": 999,
        "meta_rev_at_epoch": 64828,
        "meta_bstar": 0.002472233,
        "meta_mean_motion_dot": 0.00010473,
        "meta_mean_motion_ddot": 0,
        "tle_line1": "1 31672U 99025CCE 25343.78625538  .00010473  00000+0  24722-2 0  9998",
        "tle_line2": "2 31672  98.9574 171.1973 0108049 350.6234   9.2939 14.50862941648287"
      },
      "geometry": {
        "type": "Point",
        "coordinates": [
          172.38753103022447,
          43.16030335389689
        ]
      }
    },
    {
      "type": "Feature",
      "properties": {
        "norad_id": 31673,
        "name": "FENGYUN 1C DEB",
        "group": "fengyun-1c-debris",
        "lat": -28.43787557599529,
        "lon": -167.00450208463946,
        "alt_km": 745.243374631159,
        "timestamp": "2025-12-18T21:31:51.285334+00:00",
        "meta_object_name": "FENGYUN 1C DEB",
        "meta_object_id": "1999-025CCF",
        "meta_epoch": "2025-12-17T12:07:26.297472",
        "meta_mean_motion": 14.31948399,
        "meta_eccentricity": 0.01255829,
        "meta_inclination": 99.3741,
        "meta_ra_of_asc_node": 186.3601,
        "meta_arg_of_pericenter": 35.3112,
        "meta_mean_anomaly": 325.6307,
        "meta_ephemeris_type": 0,
        "meta_classification_type": "U",
        "meta_norad_cat_id": 31673,
        "meta_element_set_no": 999,
        "meta_rev_at_epoch": 64959,
        "meta_bstar": 0.00017748965,
        "meta_mean_motion_dot": 4.66e-06,
        "meta_mean_motion_ddot": 0,
        "tle_line1": "1 31673U 99025CCF 25351.50516548  .00000466  00000+0  17749-3 0  9991",
        "tle_line2": "2 31673  99.3741 186.3601 0125582  35.3112 325.6307 14.31948399649598"
      },
      "geometry": {
        "type": "Point",
        "coordinates": [
          -167.00450208463946,
          -28.43787557599529
        ]
      }
    }
  ]
}